#aV2024 12 20  0  0  0.00000000     288 DD+AD WGS84 FIT  NGA
## 2345 432000.00000000   300.00000000 60664 0.0000000000000
+   31     2  3  4  5  6  7  8  9 10 11 12 13 14 15 16 17 18
+         19 20 21 22 23 24 25 26 27 28 29 30 31 32  0  0  0
+          0  0  0  0  0  0  0  0  0  0  0  0  0  0  0  0  0
+          0  0  0  0  0  0  0  0  0  0  0  0  0  0  0  0  0
+          0  0  0  0  0  0  0  0  0  0  0  0  0  0  0  0  0
++         2  2  2  2  2  2  2  2  2  2  2  2  2  2  2  2  2
++         2  2  2  2  2  2  2  2  2  2  2  2  2  2  0  0  0
++         0  0  0  0  0  0  0  0  0  0  0  0  0  0  0  0  0
++         0  0  0  0  0  0  0  0  0  0  0  0  0  0  0  0  0
++         0  0  0  0  0  0  0  0  0  0  0  0  0  0  0  0  0
%c cc cc ccc ccc cccc cccc cccc cccc ccccc ccccc ccccc ccccc
%c cc cc ccc ccc cccc cccc cccc cccc ccccc ccccc ccccc ccccc
%f  0.0000000  0.000000000  0.00000000000  0.000000000000000
%f  0.0000000  0.000000000  0.00000000000  0.000000000000000
%i    0    0    0    0      0      0      0      0         0
%i    0    0    0    0      0      0      0      0         0
/*      NGA, ST. LOUIS,MO.                                  
/*   EPHEMERIS COMPUTED FROM 2 DAYS OF DATA                 
/*   EPOCHA v9 SMOOTHER                                     
/*   G2296 IERS2010 SATIGS SATAPC                           
*  2024 12 20 15 45  0.00000000
P  2 -21592.064153 -13693.976952  -7408.768497   -287.509722                    
V  2  10096.766585   1407.093182 -29751.854778      0.089190                    
P  3 -12047.965668 -16895.368106  16478.273511    628.870224                    
V  3   -148.504231 -21173.929372 -21494.775115      0.085829                    
P  4 -16325.761802  -6104.694459  20101.746577    498.955790                    
V  4  20992.056764 -14378.104159  12543.921804      0.061150                    
P  5   5683.931641  25667.854715  -3707.325641   -196.579859                    
V  5  -1826.270292   4749.650391  31636.852801     -0.011329                    
P  6 -11721.799956  10068.008694  21695.271732    -58.556308                    
V  6 -24191.860077 -12593.297721  -7134.910213     -0.283486                    
P  7 -24849.972322  -6087.569440  -7409.797245    -15.009337                    
V  7  -7850.685076  -6796.480694  29322.593603      0.011010                    
P  8  -6496.848208 -14305.267777 -21501.376393    442.906429                    
V  8  22137.192678 -15625.026101   4177.897508      0.087479                    
P  9 -21618.264246   2476.666865  15182.829407    495.126992                    
V  9  14586.274809 -12974.750995  22682.490964      0.159247                    
P 10  10586.100494 -16278.989110 -17730.278186   -242.274246                    
V 10   3049.279284  22888.972255 -19274.056481     -0.155528                    
P 11   1715.684061  16970.090346  20414.605370   -752.715088                    
V 11 -23139.114450 -11451.464482  11427.223222     -0.000832                    
P 12   9771.407942  20290.915652  13831.013984   -559.533377                    
V 12  -2117.264742  18041.687687 -24418.495967     -0.023241                    
P 13  -3668.427081  17082.658145 -20165.949027    690.657612                    
V 13 -23037.721509  10088.462020  13120.022670      0.013761                    
P 14 -13276.771741  12421.787211 -19236.212116    563.986811                    
V 14  -2925.048790 -24534.863875 -14025.002287      0.075525                    
P 15   8638.089651  13643.356916 -21600.804189    241.871279                    
V 15 -19432.932220  17750.555735   3671.890519      0.045344                    
P 16    692.843748 -26286.619400    535.893773    -98.451564                    
V 16   3216.813734   1152.418798  32039.837944      0.095524                    
P 17 -22943.192627  13585.983604   -154.854803    510.928955                    
V 17   -685.306759  -2490.195532 -31740.163491     -0.162947                    
P 18  24106.975633   4101.570564 -10613.438639   -660.023436                    
V 18  11109.825392   7787.380244  27937.713392      0.006281                    
P 19 -18025.421866  16855.218491   9075.310713    576.153020                    
V 19 -11763.893300   3150.592388 -29200.075959      0.046242                    
P 20    -95.427185  25063.569604   9079.042867    367.736478                    
V 20  -5340.670610 -10364.724215  28691.379518     -0.003108                    
P 21 -17305.149080 -16012.449035 -12862.135910     97.253932                    
V 21  16074.075601   4240.930077 -25045.583072      0.022453                    
P 22 -10069.665352  20142.681647 -13935.122438    -87.554467                    
V 22  -1806.636057 -18266.599490 -24117.809642     -0.023672                    
P 23  14688.593495  -1081.754698 -22061.453587    387.402139                    
V 23   2885.578884  27900.769671    329.047743      0.076696                    
P 24  19694.633711  15230.575989 -10268.008100   -471.850949                    
V 24 -12508.891932  -1553.805626 -27162.003268      0.032610                    
P 25  15231.083791   7282.663223  20208.362216    497.874273                    
V 25   1513.324602  26415.127857 -10214.750062     -0.004555                    
P 26   5363.220970 -22790.077689  11985.994727    -16.052500                    
V 26   5933.989976  14960.938676  25796.858498     -0.143145                    
P 27   5325.094077 -18988.091325 -17885.699608    -34.004086                    
V 27  19319.800659 -11242.137172  18424.331347      0.003638                    
P 28  13559.220973  -9751.825111  20639.047526   -513.499887                    
V 28  23613.254540  11471.847766 -10081.553454     -0.105267                    
P 29  21954.265631   -779.803068  14972.887995   -554.311247                    
V 29 -15574.878789  11071.584196  23224.482729      0.032125                    
P 30 -19984.468961   4299.084907 -16949.019394   -257.194244                    
V 30 -18751.125590 -11285.825396  18809.024974      0.081689                    
P 31   3819.573700 -15007.411377  21297.421140   -219.597286                    
V 31  24940.600118  12052.092413   4331.984366      0.007443                    
P 32  20363.504081 -16660.672189   2927.355809   -555.909335                    
V 32   4475.929275    368.034726 -31667.431062      0.062347                    
EOF
